RESURS-DK 1             
1 29228U 06021A   26181.78460793  .00002178  00000+0  12821-3 0  9998
2 29228  69.9341 304.3547 0006695 285.3513  74.6913 15.13271968104633
CZ-4B R/B               
1 29507U 06046C   26181.70166596  .00003717  00000+0  18464-3 0  9990
2 29507  97.5440 226.2670 0031310 233.4235 126.4117 15.17879881 77189
CZ-2C R/B               
1 31114U 07010B   26181.30422177  .00000072  00000+0  52389-4 0  9991
2 31114  98.4111 289.0143 0058274 327.7830  31.9792 14.20278887995707
COSMO-SKYMED 1          
1 31598U 07023A   26181.83631997  .00001986  00000+0  17706-3 0  9999
2 31598  97.8855  13.8074 0001517  84.0744 276.0650 14.97169648 31830
COSMOS 2428             
1 31792U 07029A   26181.80731073  .00000050  00000+0  52333-4 0  9991
2 31792  70.9377 325.8792 0007127 108.9662 251.2232 14.12928500980075
SL-16 R/B               
1 31793U 07029B   26181.47361403 -.00000257  00000+0 -10813-3 0  9998
2 31793  70.9768 295.2989 0002429 262.3056 168.6226 14.14853598981329
KORONAS-FOTON           
1 33504U 09003A   26181.41320121  .00009438  00000+0  19223-3 0  9992
2 33504  82.4289 158.4595 0012584 106.6696 253.5935 15.45991028963140
CZ-2C R/B               
1 37731U 11030B   26181.81122881  .00001268  00000+0  16494-3 0  9998
2 37731  97.8661 136.9520 0051872 343.8409  34.1518 14.81504354806843
H-2A R/B                
1 38341U 12025E   26181.46934837  .00002647  00000+0  23935-3 0  9994
2 38341  98.4824 157.7101 0042641 304.5384  55.1813 14.95778153765070
SHIJIAN-16 (SJ-16)      
1 39358U 13057A   26181.84584730  .00001505  00000+0  14859-3 0  9991
2 39358  74.9731 330.8119 0016430 198.9124 161.1456 14.92630959688389
SL-4 R/B                
1 39679U 14021B   26181.15439646  .00008299  00000+0  17316-3 0  9996
2 39679  51.6043 147.2323 0090581 153.2580 207.3118 15.42202414673614
ALOS-2                  
1 39766U 14029A   26181.86863941  .00000732  00000+0  10488-3 0  9995
2 39766  97.9232 278.8362 0001598  87.5110 272.6284 14.79474729653601
YAOGAN-29               
1 41038U 15069A   26181.87378523 -.00000358  00000+0 -37328-4 0  9992
2 41038  98.0021 210.5275 0001871  32.7108 327.4221 14.83093886572654
ASTRO-H (HITOMI)        
1 41337U 16012A   26181.77875765  .00002818  00000+0  16084-3 0  9998
2 41337  31.0005 346.4066 0009634  29.3738 330.7441 15.10572596569342
HXMT (HUIYAN)           
1 42758U 17034A   26181.81589692  .00004337  00000+0  21464-3 0  9993
2 42758  43.0144 107.1468 0032598 233.1747 126.6110 15.18574060499731
SAOCOM 1A               
1 43641U 18076A   26181.84069091  .00000268  00000+0  40275-4 0  9992
2 43641  97.8879   8.3907 0001568  78.9595 281.1795 14.82158629418123
H-2A R/B                
1 43682U 18084L   26181.72546961  .00020946  00000+0  43211-3 0  9996
2 43682  98.8556  63.5779 0021884 353.6712   6.4252 15.45672702423213
SAOCOM 1B               
1 46265U 20059A   26181.80437912  .00000672  00000+0  90979-4 0  9993
2 46265  97.8880   7.4503 0001582  81.9307 278.2085 14.82149148315506
CSS (TIANHE)            
1 48274U 21035A   26181.85942709  .00021186  00000+0  24432-3 0  9993
2 48274  41.4677 238.7619 0008721 188.7770 171.2918 15.61388759295309
COSMOS 2550             
1 48865U 21056A   26181.84807245  .00005165  00000+0  16259-3 0  9993
2 48865  67.1434  58.5830 0008362 269.0181  91.0015 15.33856958280811
CZ-2C R/B               
1 52794U 22058K   26181.73758560  .00037877  00000+0  40560-3 0  9992
2 52794  50.1860  92.9629 0031566 323.2734  36.6077 15.62799498227764
CZ-2C R/B               
1 54039U 22132E   26181.00889445  .00070629  00000+0  51238-3 0  9992
2 54039  97.2890 188.6182 0013156  42.7723 317.4562 15.73080866207969
GSLV R/B                
1 54149U 22138AN  26181.81848992  .00002462  00000+0  20862-3 0  9990
2 54149  87.3816 128.4071 0024152  98.9323 261.4644 14.97321086200852
XRISM                   
1 57800U 23137A   26181.65313660  .00004478  00000+0  24478-3 0  9994
2 57800  31.0022 272.3701 0007735  99.7249 260.4264 15.12578815154900
ACS3                    
1 59588U 24077B   26181.33678761  .00010972  00000+0  78637-2 0  9995
2 59588  97.1700  97.2009 0104420  52.7337 308.3297 13.94555943109871
CZ-8A R/B               
1 66004U 25231K   26181.81725898 -.00000010  00000+0  54723-4 0  9991
2 66004  50.0054 341.3280 0116485 271.9942  86.7638 14.30158506 36899
SZ-21 MODULE            
1 66515U 25246C   26181.51505126  .00041495  00000+0  24277-3 0  9992
2 66515  41.4700 224.2498 0004988 103.9916 256.1484 15.77532205 35847
