OBJECT_NAME,OBJECT_ID,EPOCH,MEAN_MOTION,ECCENTRICITY,INCLINATION,RA_OF_ASC_NODE,ARG_OF_PERICENTER,MEAN_ANOMALY,EPHEMERIS_TYPE,CLASSIFICATION_TYPE,NORAD_CAT_ID,ELEMENT_SET_NO,REV_AT_EPOCH,BSTAR,MEAN_MOTION_DOT,MEAN_MOTION_DDOT
RESURS-DK 1,2006-021A,2026-06-30T18:49:50.125152,15.13271968,.0006695,69.9341,304.3547,285.3513,74.6913,0,U,29228,999,10463,.12821E-3,.2178E-4,0
CZ-4B R/B,2006-046C,2026-06-30T16:50:23.938944,15.17879881,.003131,97.5440,226.2670,233.4235,126.4117,0,U,29507,999,7718,.18464E-3,.3717E-4,0
CZ-2C R/B,2007-010B,2026-06-30T07:18:04.760928,14.20278887,.00582749,98.4111,289.0143,327.7830,31.9792,0,U,31114,999,99570,.52388507E-4,.72E-6,0
COSMO-SKYMED 1,2007-023A,2026-06-30T20:04:18.045408,14.97169648,.0001517,97.8855,13.8074,84.0744,276.0650,0,U,31598,999,3183,.17706E-3,.1986E-4,0
COSMOS 2428,2007-029A,2026-06-30T19:22:31.647072,14.12928500,.0007127,70.9377,325.8792,108.9662,251.2232,0,U,31792,999,98007,.52333E-4,.5E-6,0
SL-16 R/B,2007-029B,2026-06-30T11:22:00.252192,14.14853598,.0002429,70.9768,295.2989,262.3056,168.6226,0,U,31793,999,98132,-.10813465E-3,-.257E-5,0
KORONAS-FOTON,2009-003A,2026-06-30T09:55:00.584544,15.45991028,.0012584,82.4289,158.4595,106.6696,253.5935,0,U,33504,999,96314,.19222988E-3,.9438E-4,0
CZ-2C R/B,2011-030B,2026-06-30T19:28:10.169184,14.81504354,.0051872,97.8661,136.9520,343.8409,34.1518,0,U,37731,999,80684,.16494E-3,.1268E-4,0
H-2A R/B,2012-025E,2026-06-30T11:15:51.699168,14.95778153,.00426411,98.4824,157.7101,304.5384,55.1813,0,U,38341,999,76507,.23935365E-3,.2647E-4,0
SHIJIAN-16 (SJ-16),2013-057A,2026-06-30T20:18:01.206720,14.92630959,.001643,74.9731,330.8119,198.9124,161.1456,0,U,39358,999,68838,.14859E-3,.1505E-4,0
SL-4 R/B,2014-021B,2026-06-30T03:42:19.854144,15.42202414,.00905819,51.6043,147.2323,153.2580,207.3118,0,U,39679,999,67361,.17315912E-3,.8299E-4,0
ALOS-2,2014-029A,2026-06-30T20:50:50.445024,14.79474729,.0001598,97.9232,278.8362,87.5110,272.6284,0,U,39766,999,65360,.10488E-3,.732E-5,0
YAOGAN-29,2015-069A,2026-06-30T20:58:15.043872,14.83093886,.0001871,98.0021,210.5275,32.7108,327.4221,0,U,41038,999,57265,-.37328E-4,-.358E-5,0
ASTRO-H (HITOMI),2016-012A,2026-06-30T18:41:24.660960,15.10572596,.0009634,31.0005,346.4066,29.3738,330.7441,0,U,41337,999,56934,.16084E-3,.2818E-4,0
HXMT (HUIYAN),2017-034A,2026-06-30T19:34:53.493888,15.18574060,.0032598,43.0144,107.1468,233.1747,126.6110,0,U,42758,999,49973,.21464E-3,.4337E-4,0
SAOCOM 1A,2018-076A,2026-06-30T20:10:35.694624,14.82158629,.0001568,97.8879,8.3907,78.9595,281.1795,0,U,43641,999,41812,.40275E-4,.268E-5,0
H-2A R/B,2018-084L,2026-06-30T17:24:40.574304,15.45672702,.0021884,98.8556,63.5779,353.6712,6.4252,0,U,43682,999,42321,.43211E-3,.20946E-3,0
SAOCOM 1B,2020-059A,2026-06-30T19:18:18.355968,14.82149148,.0001582,97.8880,7.4503,81.9307,278.2085,0,U,46265,999,31550,.90979E-4,.672E-5,0
CSS (TIANHE),2021-035A,2026-06-30T20:37:34.500576,15.61388759,.0008721,41.4677,238.7619,188.7770,171.2918,0,U,48274,999,29530,.24432E-3,.21186E-3,0
COSMOS 2550,2021-056A,2026-06-30T20:21:13.459680,15.33856958,.0008362,67.1434,58.5830,269.0181,91.0015,0,U,48865,999,28081,.16259E-3,.5165E-4,0
CZ-2C R/B,2022-058K,2026-06-30T17:42:07.395840,15.62799498,.0031566,50.1860,92.9629,323.2734,36.6077,0,U,52794,999,22776,.4056E-3,.37877E-3,0
CZ-2C R/B,2022-132E,2026-06-30T00:12:48.480480,15.73080866,.0013156,97.2890,188.6182,42.7723,317.4562,0,U,54039,999,20796,.51238168E-3,.70629E-3,0
GSLV R/B,2022-138AN,2026-06-30T19:38:37.529088,14.97321086,.0024152,87.3816,128.4071,98.9323,261.4644,0,U,54149,999,20085,.20862E-3,.2462E-4,0
XRISM,2023-137A,2026-06-30T15:40:31.002240,15.12578815,.0007735,31.0022,272.3701,99.7249,260.4264,0,U,57800,999,15490,.24478E-3,.4478E-4,0
ACS3,2024-077B,2026-06-30T08:04:58.449504,13.94555943,.010442,97.1700,97.2009,52.7337,308.3297,0,U,59588,999,10987,.78637348E-2,.10972E-3,0
CZ-8A R/B,2025-231K,2026-06-30T19:36:51.175872,14.30158506,.0116485,50.0054,341.3280,271.9942,86.7638,0,U,66004,999,3689,.54723E-4,-.1E-6,0
SZ-21 MODULE,2025-246C,2026-06-30T12:21:40.428864,15.77532205,.0004988,41.4700,224.2498,103.9916,256.1484,0,U,66515,999,3584,.24276765E-3,.41495E-3,0
